[{"OBJECT_NAME":"FGN-100-D2","OBJECT_ID":"2025-248G","EPOCH":"2026-03-09T00:05:30.712416","MEAN_MOTION":15.19697424,"ECCENTRICITY":0.00052703,"INCLINATION":45.4006,"RA_OF_ASC_NODE":298.0063,"ARG_OF_PERICENTER":203.9196,"MEAN_ANOMALY":156.1446,"EPHEMERIS_TYPE":0,"CLASSIFICATION_TYPE":"U","NORAD_CAT_ID":66299,"ELEMENT_SET_NO":999,"REV_AT_EPOCH":1927,"BSTAR":0.00030465999,"MEAN_MOTION_DOT":6.346e-5,"MEAN_MOTION_DDOT":0},{"OBJECT_NAME":"HOTSAT-1","OBJECT_ID":"2023-084Y","EPOCH":"2026-03-09T22:00:57.183264","MEAN_MOTION":15.22033615,"ECCENTRICITY":3.707e-5,"INCLINATION":97.6057,"RA_OF_ASC_NODE":201.9858,"ARG_OF_PERICENTER":39.1931,"MEAN_ANOMALY":320.9331,"EPHEMERIS_TYPE":0,"CLASSIFICATION_TYPE":"U","NORAD_CAT_ID":56954,"ELEMENT_SET_NO":999,"REV_AT_EPOCH":15199,"BSTAR":0.00029593923,"MEAN_MOTION_DOT":6.692e-5,"MEAN_MOTION_DDOT":0}]
